NORAD_CAT_ID,OBJECT_NAME,OBJECT_TYPE,EPOCH,MEAN_MOTION,ECCENTRICITY,INCLINATION,RA_OF_ASC_NODE,ARG_OF_PERICENTER,MEAN_ANOMALY,BSTAR,MEAN_MOTION_DOT,MEAN_MOTION_DDOT,TLE_LINE0,TLE_LINE1,TLE_LINE2,SEMIMAJOR_AXIS,PERIOD,APOGEE,PERIGEE,DECAYED
53986.0,STARLINK-5119,PAYLOAD,2023-04-16 21:02:35,15.08847042,0.0001323,53.2172,272.5108,98.8456,261.2686,0.00016898,2.403e-05,0.0,0 STARLINK-5119,1 53986U 22125Y   23106.87679972  .00002403  00000-0  16898-3 0  9994,2 53986  53.2172 272.5108 0001323  98.8456 261.2686 15.08847042 29985,6917.859,95.437,540.639,538.809,0.0
53986.0,STARLINK-5119,PAYLOAD,2023-04-17 11:21:04,15.08838531,0.0001104,53.215,269.8323,88.0464,272.0654,-4.3223e-05,-9.76e-06,0.0,0 STARLINK-5119,1 53986U 22125Y   23107.47296409 -.00000976  00000-0 -43223-4 0  9999,2 53986  53.2150 269.8323 0001104  88.0464 272.0654 15.08838531 30076,6917.885,95.438,540.514,538.986,0.0
53986.0,STARLINK-5119,PAYLOAD,2023-04-17 17:42:36,15.08845379,0.0001179,53.2153,268.6449,92.1362,267.9765,7.7508e-05,9.46e-06,0.0,0 STARLINK-5119,1 53986U 22125Y   23107.73792091  .00000946  00000-0  77508-4 0  9994,2 53986  53.2153 268.6449 0001179  92.1362 267.9765 15.08845379 30030,6917.864,95.437,540.545,538.913,0.0
53986.0,STARLINK-5119,PAYLOAD,2023-04-17 22:28:45,15.0885453,0.0001195,53.2154,267.75,87.9779,272.135,0.00022755,3.337e-05,0.0,0 STARLINK-5119,1 53986U 22125Y   23107.93663686  .00003337  00000-0  22755-3 0  9993,2 53986  53.2154 267.7500 0001195  87.9779 272.1350 15.08854530 30140,6917.836,95.437,540.528,538.874,0.0
53986.0,STARLINK-5119,PAYLOAD,2023-04-18 03:14:55,15.08826613,9.38e-05,53.2152,266.8584,102.7304,257.3793,-0.00022617,-3.884e-05,0.0,0 STARLINK-5119,1 53986U 22125Y   23108.13536664 -.00003884  00000-0 -22617-3 0  9997,2 53986  53.2152 266.8584 0000938 102.7304 257.3793 15.08826613 30174,6917.921,95.438,540.435,539.137,0.0
53986.0,STARLINK-5119,PAYLOAD,2023-04-18 19:08:46,15.08847634,0.0001157,53.2157,263.8824,91.7757,268.3367,0.00023271,3.418e-05,0.0,0 STARLINK-5119,1 53986U 22125Y   23108.79776147  .00003418  00000-0  23271-3 0  9999,2 53986  53.2157 263.8824 0001157  91.7757 268.3367 15.08847634 30272,6917.857,95.437,540.522,538.922,0.0
53986.0,STARLINK-5119,PAYLOAD,2023-04-19 03:05:42,15.08844992,0.000109,53.2156,262.3992,90.4833,269.6284,0.00041677,6.352e-05,0.0,0 STARLINK-5119,1 53986U 22125Y   23109.12896335  .00006352  00000-0  41677-3 0  9999,2 53986  53.2156 262.3992 0001090  90.4833 269.6284 15.08844992 30241,6917.865,95.437,540.484,538.976,0.0
53986.0,STARLINK-5119,PAYLOAD,2023-04-19 14:13:24,15.08840906,0.000157,53.2158,260.3182,89.5006,270.6166,0.0002381,3.503e-05,0.0,0 STARLINK-5119,1 53986U 22125Y   23109.59264636  .00003503  00000-0  23810-3 0  9997,2 53986  53.2158 260.3182 0001570  89.5006 270.6166 15.08840906 30394,6917.878,95.437,540.829,538.657,0.0
53986.0,STARLINK-5119,PAYLOAD,2023-04-19 17:24:10,15.08845292,0.000136,53.2159,259.7236,87.9217,272.1931,0.00025918,3.84e-05,0.0,0 STARLINK-5119,1 53986U 22125Y   23109.72512489  .00003840  00000-0  25918-3 0  9999,2 53986  53.2159 259.7236 0001360  87.9217 272.1931 15.08845292 30334,6917.864,95.437,540.67,538.788,0.0
53986.0,STARLINK-5119,PAYLOAD,2023-04-19 22:10:19,15.08857875,0.0001349,53.2157,258.8277,81.7102,278.4043,0.0005719,8.83e-05,0.0,0 STARLINK-5119,1 53986U 22125Y   23109.92384085  .00008830  00000-0  57190-3 0  9991,2 53986  53.2157 258.8277 0001349  81.7102 278.4043 15.08857875 30444,6917.826,95.436,540.624,538.758,0.0
53986.0,STARLINK-5119,PAYLOAD,2023-04-20 09:18:02,15.08829633,0.000104,53.2161,256.7449,98.1833,261.9277,-0.00010047,-1.886e-05,0.0,0 STARLINK-5119,1 53986U 22125Y   23110.38752970 -.00001886  00000-0 -10047-3 0  9991,2 53986  53.2161 256.7449 0001040  98.1833 261.9277 15.08829633 30434,6917.912,95.438,540.497,539.058,0.0
53986.0,STARLINK-5119,PAYLOAD,2023-04-20 15:39:35,15.08839514,0.0001447,53.2146,255.5599,60.8082,299.3055,0.00046223,7.076e-05,0.0,0 STARLINK-5119,1 53986U 22125Y   23110.65249059  .00007076  00000-0  46223-3 0  9990,2 53986  53.2146 255.5599 0001447  60.8082 299.3055 15.08839514 30475,6917.882,95.438,540.748,538.746,0.0
53986.0,STARLINK-5119,PAYLOAD,2023-04-21 02:47:16,15.08842472,4.66e-05,53.2149,253.4769,236.4032,123.6915,0.00027861,4.15e-05,0.0,0 STARLINK-5119,1 53986U 22125Y   23111.11616424  .00004150  00000-0  27861-3 0  9993,2 53986  53.2149 253.4769 0000466 236.4032 123.6915 15.08842472 30628,6917.873,95.437,540.06,539.415,0.0
53986.0,STARLINK-5119,PAYLOAD,2023-04-21 15:30:22,15.08846256,8.89e-05,53.2147,251.0966,95.0813,265.028,0.0014953,0.00023594,0.0,0 STARLINK-5119,1 53986U 22125Y   23111.64609147  .00023594  00000-0  14953-2 0  9995,2 53986  53.2147 251.0966 0000889  95.0813 265.0280 15.08846256 30624,6917.861,95.437,540.341,539.111,0.0
53986.0,STARLINK-5119,PAYLOAD,2023-04-22 08:59:36,15.08840226,0.0001235,53.2144,247.8281,20.1297,339.9744,0.00091308,0.00014274,0.0,0 STARLINK-5119,1 53986U 22125Y   23112.37473279  .00014274  00000-0  91308-3 0  9996,2 53986  53.2144 247.8281 0001235  20.1297 339.9744 15.08840226 30734,6917.88,95.438,540.599,538.89,0.0
53986.0,STARLINK-5119,PAYLOAD,2023-04-23 19:58:04,15.08852845,0.0003206,53.2138,241.2833,209.4048,150.6764,0.001711,0.00027059,0.0,0 STARLINK-5119,1 53986U 22125Y   23113.83199806  .00027059  00000-0  17110-2 0  9992,2 53986  53.2138 241.2833 0003206 209.4048 150.6764 15.08852845 30958,6917.841,95.437,541.924,537.488,0.0
53986.0,STARLINK-5119,PAYLOAD,2023-04-24 08:41:10,15.08934171,0.0001381,53.2151,238.9049,95.3967,264.7183,0.0078495,0.00127229,0.0,0 STARLINK-5119,1 53986U 22125Y   23114.36192641  .00127229  00000-0  78495-2 0  9994,2 53986  53.2151 238.9049 0001381  95.3967 264.7183 15.08934171 31113,6917.593,95.432,540.413,538.502,0.0
53986.0,STARLINK-5119,PAYLOAD,2023-04-25 08:31:57,15.08786222,0.0001347,53.2156,234.4458,145.221,214.887,0.00093277,0.00014566,0.0,0 STARLINK-5119,1 53986U 22125Y   23115.35552320  .00014566  00000-0  93277-3 0  9993,2 53986  53.2156 234.4458 0001347 145.2210 214.8870 15.08786222 31189,6918.045,95.441,540.842,538.978,0.0
53986.0,STARLINK-5119,PAYLOAD,2023-04-26 11:33:32,15.08832909,0.0001066,53.2151,229.3907,115.5961,244.5141,0.0013598,0.00021415,0.0,0 STARLINK-5119,1 53986U 22125Y   23116.48162653  .00021415  00000-0  13598-2 0  9992,2 53986  53.2151 229.3907 0001066 115.5961 244.5141 15.08832909 31351,6917.902,95.438,540.505,539.03,0.0
53986.0,STARLINK-5119,PAYLOAD,2023-04-26 16:19:41,15.08840845,0.0001056,53.2151,228.4988,116.1728,243.9373,0.0013834,0.00021798,0.0,0 STARLINK-5119,1 53986U 22125Y   23116.68034692  .00021798  00000-0  13834-2 0  9992,2 53986  53.2151 228.4988 0001056 116.1728 243.9373 15.08840845 31388,6917.878,95.438,540.473,539.012,0.0
53986.0,STARLINK-5119,PAYLOAD,2023-04-27 11:24:19,15.08863963,0.000101,53.2144,224.9309,106.2084,253.9019,0.0011919,0.00018744,0.0,0 STARLINK-5119,1 53986U 22125Y   23117.47522124  .00018744  00000-0  11919-2 0  9991,2 53986  53.2144 224.9309 0001010 106.2084 253.9019 15.08863963 31589,6917.807,95.436,540.371,538.973,0.0
53986.0,STARLINK-5119,PAYLOAD,2023-04-28 00:07:23,15.08858031,0.0001218,53.2143,222.5519,86.2886,273.8245,0.00049077,7.535e-05,0.0,0 STARLINK-5119,1 53986U 22125Y   23118.00513622  .00007535  00000-0  49077-3 0  9997,2 53986  53.2143 222.5519 0001218  86.2886 273.8245 15.08858031 31663,6917.825,95.436,540.533,538.848,0.0
53986.0,STARLINK-5119,PAYLOAD,2023-04-28 12:50:28,15.08853882,5.86e-05,53.2158,220.1742,94.6419,265.464,0.00021079,3.07e-05,0.0,0 STARLINK-5119,1 53986U 22125Y   23118.53505132  .00003070  00000-0  21079-3 0  9994,2 53986  53.2158 220.1742 0000586  94.6419 265.4640 15.08853882 31668,6917.838,95.437,540.108,539.298,0.0
53986.0,STARLINK-5119,PAYLOAD,2023-04-28 23:58:10,15.08845575,0.0001403,53.2161,218.0941,74.5437,285.571,0.00032104,4.826e-05,0.0,0 STARLINK-5119,1 53986U 22125Y   23118.99873451  .00004826  00000-0  32104-3 0  9997,2 53986  53.2161 218.0941 0001403  74.5437 285.5710 15.08845575 31813,6917.863,95.437,540.699,538.758,0.0
53986.0,STARLINK-5119,PAYLOAD,2023-04-29 09:30:29,15.08838428,0.0001334,53.2153,216.3098,71.0746,289.0391,0.00028756,4.291e-05,0.0,0 STARLINK-5119,1 53986U 22125Y   23119.39617698  .00004291  00000-0  28756-3 0  9995,2 53986  53.2153 216.3098 0001334  71.0746 289.0391 15.08838428 31875,6917.885,95.438,540.673,538.827,0.0
53986.0,STARLINK-5119,PAYLOAD,2023-04-29 12:41:16,15.088338,0.0001336,53.215,215.7149,70.1883,289.9253,9.3423e-05,1.199e-05,0.0,0 STARLINK-5119,1 53986U 22125Y   23119.52865818  .00001199  00000-0  93423-4 0  9997,2 53986  53.2150 215.7149 0001336  70.1883 289.9253 15.08833800 31815,6917.899,95.438,540.689,538.84,0.0
53986.0,STARLINK-5119,PAYLOAD,2023-04-30 12:32:02,15.08844694,0.0001058,53.215,211.2519,83.0873,277.0239,0.00027522,4.096e-05,0.0,0 STARLINK-5119,1 53986U 22125Y   23120.52225643  .00004096  00000-0  27522-3 0  9990,2 53986  53.2150 211.2519 0001058  83.0873 277.0239 15.08844694 31961,6917.866,95.437,540.463,538.999,0.0
53986.0,STARLINK-5119,PAYLOAD,2023-04-30 17:18:12,15.08853195,9.53e-05,53.2152,210.3592,83.9843,276.1258,0.00050028,7.686e-05,0.0,0 STARLINK-5119,1 53986U 22125Y   23120.72097343  .00007686  00000-0  50028-3 0  9991,2 53986  53.2152 210.3592 0000953  83.9843 276.1258 15.08853195 32073,6917.84,95.437,540.364,539.046,0.0
53986.0,STARLINK-5119,PAYLOAD,2023-05-01 10:47:27,15.08837852,0.0001123,53.2148,207.0894,85.3331,274.779,0.00011081,1.476e-05,0.0,0 STARLINK-5119,1 53986U 22125Y   23121.44962082  .00001476  00000-0  11081-3 0  9999,2 53986  53.2148 207.0894 0001123  85.3331 274.7790 15.08837852 32183,6917.887,95.438,540.529,538.975,0.0
53986.0,STARLINK-5119,PAYLOAD,2023-05-01 12:22:50,15.08840094,0.0001169,53.2152,206.7895,104.1501,255.9621,0.00014139,1.963e-05,0.0,0 STARLINK-5119,1 53986U 22125Y   23121.51585968  .00001963  00000-0  14139-3 0  9999,2 53986  53.2152 206.7895 0001169 104.1501 255.9621 15.08840094 32113,6917.88,95.438,540.554,538.936,0.0
